[{"OBJECT_NAME":"STARLINK-4458","OBJECT_ID":"2022-105W","EPOCH":"2026-03-09T15:32:06.517824","MEAN_MOTION":15.05647218,"ECCENTRICITY":0.0002721,"INCLINATION":97.602,"RA_OF_ASC_NODE":311.1246,"ARG_OF_PERICENTER":82.4874,"MEAN_ANOMALY":277.6662,"EPHEMERIS_TYPE":0,"CLASSIFICATION_TYPE":"U","NORAD_CAT_ID":53668,"ELEMENT_SET_NO":999,"REV_AT_EPOCH":19329,"BSTAR":3.4877e-5,"MEAN_MOTION_DOT":4.42e-6,"MEAN_MOTION_DDOT":0},{"OBJECT_NAME":"COSMOS 1275 DEB","OBJECT_ID":"1981-053RH","EPOCH":"2026-03-08T19:02:02.535360","MEAN_MOTION":15.08606043,"ECCENTRICITY":0.00097404,"INCLINATION":83.3308,"RA_OF_ASC_NODE":196.5935,"ARG_OF_PERICENTER":282.896,"MEAN_ANOMALY":77.1182,"EPHEMERIS_TYPE":0,"CLASSIFICATION_TYPE":"U","NORAD_CAT_ID":42145,"ELEMENT_SET_NO":999,"REV_AT_EPOCH":64889,"BSTAR":0.0090120528,"MEAN_MOTION_DOT":0.00143721,"MEAN_MOTION_DDOT":0}]
